SL-8 R/B                
1 11574U 79089B   26091.21785522  .00000358  00000+0  11624-3 0  9993
2 11574  74.0695  49.3379 0016631 218.9996 140.9963 14.42365273439350
SL-14 R/B               
1 11672U 80005B   26091.21066221  .00000640  00000+0  62072-4 0  9998
2 11672  82.5109 285.8675 0017249  88.5351 271.7844 14.90956128479848
SL-8 R/B                
1 12139U 81003B   26090.98085477  .00027339  00000+0  68190-3 0  9993
2 12139  82.9324 269.3943 0260486 101.1533 261.9103 15.11985247318043
SL-3 R/B                
1 12465U 81046B   26091.16807478  .00012318  00000+0  28130-3 0  9997
2 12465  81.2280 262.7354 0018127 302.3757  57.5732 15.42554276441892
SL-3 R/B                
1 12904U 81103B   26091.19804220  .00005975  00000+0  26281-3 0  9990
2 12904  81.1615 187.0283 0012975 206.3203 153.7371 15.21646308976655
SL-3 R/B                
1 13068U 82013B   26091.19714897  .00004504  00000+0  19345-3 0  9993
2 13068  81.1728 134.3873 0023600 103.8765 256.5095 15.22216857407773
SL-3 R/B                
1 13154U 82039B   26091.18492789  .00002783  00000+0  16742-3 0  9994
2 13154  81.1566 190.0230 0028396 249.7648 110.0524 15.10208562385038
SL-3 R/B                
1 13403U 82079B   26091.17329415  .00005318  00000+0  20954-3 0  9996
2 13403  81.1481 166.5291 0025507  90.9528 269.4628 15.25097960381124
SL-14 R/B               
1 13553U 82092B   26091.19246547  .00000459  00000+0  48728-4 0  9994
2 13553  82.5654 120.3475 0019235 223.2555 205.7478 14.86686449332271
SL-3 R/B                
1 13819U 83010B   26091.14461241  .00018435  00000+0  36108-3 0  9996
2 13819  81.1046 334.7046 0015685 333.7155  26.3292 15.47119307361410
SL-3 R/B                
1 14208U 83075B   26091.18848015  .00011274  00000+0  29206-3 0  9997
2 14208  97.6132  96.6268 0022584 145.1026 215.1705 15.38955470333616
COSMOS 1536             
1 14699U 84013A   26091.04432307  .00009212  00000+0  37651-3 0  9994
2 14699  82.5412  85.6170 0013745 196.0730 164.0073 15.24139012276022
SL-14 R/B               
1 14820U 84027B   26091.11633808  .00000710  00000+0  78345-4 0  9992
2 14820  82.5423 223.9780 0016499 258.2067 101.7299 14.86001037250962
SL-8 R/B                
1 15483U 85006B   26091.08409824  .00000380  00000+0  13453-3 0  9992
2 15483  74.0457 219.9384 0017559 131.1527  41.9277 14.37799653157246
SL-12 R/B(2)            
1 15772U 85042D   26091.21247693  .00000104  00000+0  68375-4 0  9990
2 15772  71.1095  40.1420 0032845  90.7588   9.8322 14.21988785117597
SL-14 R/B               
1 15945U 85069B   26091.16160441  .00000541  00000+0  58222-4 0  9995
2 15945  82.5306   3.8083 0020191 115.8298 244.5004 14.86457284176179
SL-16 R/B               
1 16182U 85097B   26091.23314976 -.00000185  00000+0 -68593-4 0  9990
2 16182  71.0007  93.0911 0009358 233.2792 206.0373 14.16603107 90426
